SCD 1                   
1 22490U 93009B   26195.98923404  .00000294  00000+0  29804-4 0  9991
2 22490  24.9704  35.9128 0042088  72.3680  59.1600 14.46128596765141
TECHSAT 1B (GO-32)      
1 25397U 98043D   26195.95080966  .00000005  00000+0  22291-4 0  9990
2 25397  99.0085 189.4117 0002175 114.9231 245.2173 14.24433340455282
SCD 2                   
1 25504U 98060A   26196.18837677  .00000274  00000+0  25739-4 0  9992
2 25504  24.9945 259.4789 0016968  59.4612 325.6793 14.45534773464385
DLR-TUBSAT              
1 25757U 99029B   26195.98725470  .00000002  00000+0  12432-4 0  9997
2 25757  98.6710 192.4079 0012968 265.3841  94.5872 14.52433234437286
TERRA                   
1 25994U 99068A   26196.16632031  .00000190  00000+0  47727-4 0  9997
2 25994  97.9442 244.6011 0003410 122.7837 312.7683 14.61123699413697
MAROC-TUBSAT            
1 27004U 01056D   26196.12398381 -.00000036  00000+0  12271-4 0  9990
2 27004  99.8098  13.5120 0020598  72.2618  41.0027 13.70263555230017
AQUA                    
1 27424U 02022A   26195.50499725  .00000358  00000+0  80864-4 0  9994
2 27424  98.4295 165.3370 0000927 111.8770   0.7592 14.62196472287266
SHIYAN-1 (SY-1)         
1 28220U 04012A   26196.16542843  .00008244  00000+0  24962-3 0  9991
2 28220  97.8691 276.0648 0004080 274.6395  85.4380 15.34452999215385
AURA                    
1 28376U 04026A   26196.12744286  .00000343  00000+0  79069-4 0  9990
2 28376  98.3430 152.8150 0001321  93.4412 266.6940 14.61367688170299
IRS-P5 (CARTOSAT-1)     
1 28649U 05017A   26196.06188161  .00000689  00000+0  74751-4 0  9997
2 28649  97.5306 217.8618 0001407  54.2010 305.9339 14.91116936147979
SINAH 1                 
1 28893U 05043D   26196.20977862  .00000128  00000+0  33632-4 0  9998
2 28893  98.2893 330.7019 0014397 183.4670 176.6434 14.64175469104628
RESURS-DK 1             
1 29228U 06021A   26195.59943744  .00000920  00000+0  57623-4 0  9997
2 29228  69.9308 268.5885 0007075 271.7724  88.2632 15.13317802106727
ARIRANG-2 (KOMPSAT-2)   
1 29268U 06031A   26196.17918020  .00000092  00000+0  25787-4 0  9992
2 29268  97.8306  19.2721 0014268 350.9312 140.9472 14.64675479 65571
LAPAN-TUBSAT            
1 29709U 07001A   26196.19937628 -.00000350  00000+0 -33372-4 0  9995
2 29709  98.1345 196.0563 0013560  93.6368 266.6397 14.85974266 55314
HAIYANG-1B              
1 31113U 07010A   26195.90306163  .00000031  00000+0  27533-4 0  9995
2 31113  98.3515 176.6758 0014621 116.5671 243.7013 14.31033298  4607
COSMO-SKYMED 1          
1 31598U 07023A   26196.13854469  .00001388  00000+0  12519-3 0  9992
2 31598  97.8845  28.2308 0001420 103.2343 256.9037 14.97219144 33971
TERRASAR-X              
1 31698U 07026A   26188.47915537  .00000240  00000+0  14624-4 0  9994
2 31698  97.4461 195.8972 0001878  86.9540 273.1909 15.19153986 56300
WORLDVIEW-1 (WV-1)      
1 32060U 07041A   26196.18943323  .00003207  00000+0  13315-3 0  9997
2 32060  97.3905 315.5400 0001525 206.4263 153.6897 15.24558383 47149
YAOGAN-3                
1 32289U 07055A   26196.18264325  .00001732  00000+0  18135-3 0  9999
2 32289  97.8146 225.7839 0001659  79.6437 280.4967 14.90885169 10046
COSMO-SKYMED 2          
1 32376U 07059A   26196.17791487  .00000152  00000+0  25648-4 0  9996
2 32376  97.8894  19.3708 0001447  93.9430 266.1949 14.82150453  6152
RADARSAT-2              
1 32382U 07061A   26196.23607281 -.00000057  00000+0 -50451-5 0  9998
2 32382  98.5777 202.7680 0001305  83.8667 276.2664 14.29982961969968
CARTOSAT-2A             
1 32783U 08021A   26196.18587645  .00000332  00000+0  51405-4 0  9998
2 32783  97.7621 243.9370 0012505  27.2412 332.9454 14.79277233982943
HUANJING 1A (HJ-1A)     
1 33320U 08041A   26196.21555453  .00000370  00000+0  50393-4 0  9991
2 33320  97.6691 180.9730 0020369  49.5125 310.7861 14.84048672962563
HUANJING 1B (HJ-1B)     
1 33321U 08041B   26196.19750348  .00001003  00000+0  12711-3 0  9994
2 33321  97.6527 184.0421 0037982  91.2763 269.2803 14.83366750962568
GEOEYE 1                
1 33331U 08042A   26196.16127583  .00000183  00000+0  43464-4 0  9990
2 33331  98.1327 269.7576 0003947 346.8714  13.2385 14.64649367954249
THEOS                   
1 33396U 08049A   26196.22160226  .00000102  00000+0  67562-4 0  9992
2 33396  98.5562 252.5929 0001111  88.2073 271.9231 14.20136648921942
COSMO-SKYMED 3          
1 33412U 08054A   26196.16268409  .00002214  00000+0  15146-3 0  9998
2 33412  97.8246  55.1962 0015780 166.7237 193.4408 15.07113447961156
YAOGAN-4                
1 33446U 08061A   26195.82637064  .00000448  00000+0  61398-4 0  9990
2 33446  97.9304 129.1335 0013839 346.8701  13.2151 14.83250900949761
GOSAT (IBUKI)           
1 33492U 09002A   26196.16123499  .00000295  00000+0  60454-4 0  9999
2 33492  98.0913 306.8950 0001133  87.4497 272.6838 14.67539609935565
DEIMOS-1                
1 35681U 09041A   26196.19865580  .00000197  00000+0  36095-4 0  9996
2 35681  97.7427 352.2163 0002801  92.7919 267.3611 14.75263578911017
DUBAISAT-1              
1 35682U 09041B   26195.96754801  .00000378  00000+0  63570-4 0  9993
2 35682  98.0085 328.9263 0009987 349.5027  10.5972 14.75166452909195
